APRIZESAT 2             
1 28366U 04025A   16274.20029655  .00000066  00000-0  34878-4 0  9991
2 28366  98.3351 190.2708 0108948 107.8802 253.4302 14.36568054642260
SAUDICOMSAT 1           
1 28369U 04025D   16274.19414034  .00000121  00000-0  40304-4 0  9994
2 28369  98.1562 226.9868 0034902 104.8852 255.6214 14.52298071649056
SAUDICOMSAT 2           
1 28370U 04025E   16274.40442099  .00000073  00000-0  31649-4 0  9990
2 28370  98.2662 218.8723 0057014 221.7525 137.9311 14.47250747646885
APRIZESAT 1             
1 28372U 04025G   16274.38953097  .00000093  00000-0  35474-4 0  9996
2 28372  98.2179 222.3336 0046723 164.4069 195.8577 14.49451818647939
NANOSAT-1               
1 28493U 04049B   16274.18458776  .00000247  00000-0  46360-4 0  9995
2 28493  98.2389 334.4977 0005829 106.4283 253.7565 14.73224897632643
SAUDICOMSAT 7           
1 31119U 07012C   16274.47520890  .00000143  00000-0  37312-4 0  9998
2 31119  97.9104 242.0817 0060696 158.7274 201.6472 14.61511429504029
SAUDICOMSAT 6           
1 31121U 07012E   16274.51543769  .00000118  00000-0  34459-4 0  9997
2 31121  97.9758 233.6290 0075896 217.7938 141.7918 14.58316173502953
SAUDICOMSAT 5           
1 31124U 07012H   16274.50010168  .00000184  00000-0  43898-4 0  9991
2 31124  97.8731 247.3406 0052882 129.4729 231.1169 14.63191839504572
SAUDICOMSAT 3           
1 31125U 07012J   16274.45190468  .00000204  00000-0  46103-4 0  9993
2 31125  97.8366 252.8223 0044882 101.8144 258.8099 14.64901464505125
SAUDICOMSAT 4           
1 31127U 07012L   16274.13920480  .00000134  00000-0  36472-4 0  9995
2 31127  97.9419 237.7548 0067982 187.6453 172.3718 14.60024364503464
APRIZESAT 4             
1 35684U 09041D   16273.84118782  .00000226  00000-0  37690-4 0  9997
2 35684  98.0996 207.7742 0046520 214.7266 211.8799 14.78937858386658
APRIZESAT 3             
1 35686U 09041F   16274.48427367  .00000315  00000-0  40370-4 0  9990
2 35686  98.2572 257.4017 0074355 136.6826 224.0267 14.86937817388595
AISSAT 1                
1 36797U 10035C   16274.36061057  .00000572  00000-0  72407-4 0  9997
2 36797  98.0254  19.8762 0012492 121.2400 239.0041 14.85664301336721
